PANDORA
1 67395U 80229J   26049.69718750  .00000000  00000-0  37770-3 0    05
2 67395  97.8032  50.2257 0006273 144.4488 306.5825 14.87828065    01
